NORAD_CAT_ID,OBJECT_NAME,OBJECT_TYPE,EPOCH,MEAN_MOTION,ECCENTRICITY,INCLINATION,RA_OF_ASC_NODE,ARG_OF_PERICENTER,MEAN_ANOMALY,BSTAR,MEAN_MOTION_DOT,MEAN_MOTION_DDOT,TLE_LINE0,TLE_LINE1,TLE_LINE2,SEMIMAJOR_AXIS,PERIOD,APOGEE,PERIGEE,DECAYED
52686.0,STARLINK-4005,PAYLOAD,2022-12-21 12:03:12,15.08828199,0.0002543,53.2163,15.2513,28.4951,331.6179,-0.00038039,-6.336e-05,0.0,0 STARLINK-4005,1 52686U 22053AG  22355.50222411 -.00006336  00000-0 -38039-3 0  9999,2 52686  53.2163  15.2513 0002543  28.4951 331.6179 15.08828199 33860,6917.916,95.438,541.5409999999998,538.0219999999998,0.0
52686.0,STARLINK-4005,PAYLOAD,2022-12-22 02:21:40,15.08840365,0.0002648,53.2171,12.5754,28.3503,331.7633,-4.9918e-05,-1.083e-05,0.0,0 STARLINK-4005,1 52686U 22053AG  22356.09838370 -.00001083  00000-0 -49918-4 0  9994,2 52686  53.2171  12.5754 0002648  28.3503 331.7633 15.08840365 33577,6917.879,95.438,541.576,537.9119999999998,0.0
52686.0,STARLINK-4005,PAYLOAD,2022-12-22 10:18:35,15.08847846,0.0002581,53.2176,11.0885,29.5288,330.5849,5.3663e-05,5.66e-06,0.0,0 STARLINK-4005,1 52686U 22053AG  22356.42958030  .00000566  00000-0  53663-4 0  9992,2 52686  53.2176  11.0885 0002581  29.5288 330.5849 15.08847846 34006,6917.856,95.437,541.507,537.936,0.0
52686.0,STARLINK-4005,PAYLOAD,2022-12-22 13:29:22,15.08846021,0.0002618,53.2183,10.4939,28.4807,331.6328,1.1279000000000003e-05,-1.09e-06,0.0,0 STARLINK-4005,1 52686U 22053AG  22356.56206244 -.00000109  00000-0  11279-4 0  9991,2 52686  53.2183  10.4939 0002618  28.4807 331.6328 15.08846021 34023,6917.861999999999,95.437,541.538,537.9159999999998,0.0
52686.0,STARLINK-4005,PAYLOAD,2022-12-23 00:37:04,15.08831053,0.0002614,53.2183,8.4125,30.3595,329.7548,0.00017999,2.577e-05,0.0,0 STARLINK-4005,1 52686U 22053AG  22357.02574936  .00002577  00000-0  17999-3 0  9993,2 52686  53.2183   8.4125 0002614  30.3595 329.7548 15.08831053 33715,6917.908,95.438,541.581,537.964,0.0
52686.0,STARLINK-4005,PAYLOAD,2022-12-23 11:44:47,15.08830654,0.0002616,53.2187,6.3309,30.3263,329.788,0.00013825,1.912e-05,0.0,0 STARLINK-4005,1 52686U 22053AG  22357.48943329  .00001912  00000-0  13825-3 0  9995,2 52686  53.2187   6.3309 0002616  30.3263 329.7880 15.08830654 34169,6917.909000000002,95.438,541.5840000000002,537.964,0.0
52686.0,STARLINK-4005,PAYLOAD,2022-12-23 13:20:10,15.08831424,0.0002612,53.2187,6.0335,30.0484,330.0657,0.00014056,1.949e-05,0.0,0 STARLINK-4005,1 52686U 22053AG  22357.55567305  .00001949  00000-0  14056-3 0  9996,2 52686  53.2187   6.0335 0002612  30.0484 330.0657 15.08831424 34177,6917.906999999997,95.438,541.5790000000002,537.965,0.0
52686.0,STARLINK-4005,PAYLOAD,2022-12-24 00:27:51,15.0884628,0.0002636,53.2187,3.9521,30.6101,329.5045,0.00017668,2.525e-05,0.0,0 STARLINK-4005,1 52686U 22053AG  22358.01934388  .00002525  00000-0  17668-3 0  9990,2 52686  53.2187   3.9521 0002636  30.6101 329.5045 15.08846280 33863,6917.861,95.437,541.55,537.903,0.0
52686.0,STARLINK-4005,PAYLOAD,2022-12-24 10:00:09,15.08849613,0.0002588,53.2186,2.168,32.0627,328.0522,0.00010276,1.348e-05,0.0,0 STARLINK-4005,1 52686U 22053AG  22358.41678221  .00001348  00000-0  10276-3 0  9995,2 52686  53.2186   2.1680 0002588  32.0627 328.0522 15.08849613 34301,6917.851,95.437,541.506,537.9259999999998,0.0
52686.0,STARLINK-4005,PAYLOAD,2022-12-24 17:57:06,15.08841709,0.0002566,53.2185,0.6815,31.4774,328.6371,4.7673e-05,4.7e-06,0.0,0 STARLINK-4005,1 52686U 22053AG  22358.74798770  .00000470  00000-0  47673-4 0  9990,2 52686  53.2185   0.6815 0002566  31.4774 328.6371 15.08841709 33973,6917.875,95.437,541.515,537.965,0.0
52686.0,STARLINK-4005,PAYLOAD,2022-12-25 06:40:10,15.08842979,0.0002637,53.2184,358.3026,29.7024,330.4118,0.00014595,2.035e-05,0.0,0 STARLINK-4005,1 52686U 22053AG  22359.27790475  .00002035  00000-0  14595-3 0  9998,2 52686  53.2184 358.3026 0002637  29.7024 330.4118 15.08842979 34438,6917.871,95.437,541.561,537.9119999999998,0.0
52686.0,STARLINK-4005,PAYLOAD,2022-12-26 00:09:25,15.0883874,0.0002766,53.2181,355.0327,29.4442,330.6705,-3.2687e-05,-8.09e-06,0.0,0 STARLINK-4005,1 52686U 22053AG  22360.00655075 -.00000809  00000-0 -32687-4 0  9999,2 52686  53.2181 355.0327 0002766  29.4442 330.6705 15.08838740 34162,6917.884,95.438,541.663,537.836,0.0
52686.0,STARLINK-4005,PAYLOAD,2022-12-26 06:30:59,15.08831386,0.0002715,53.2178,353.8424,31.4611,328.6543,-5.0565e-05,-1.093e-05,0.0,0 STARLINK-4005,1 52686U 22053AG  22360.27151765 -.00001093  00000-0 -50565-4 0  9996,2 52686  53.2178 353.8424 0002715  31.4611 328.6543 15.08831386 34208,6917.906999999997,95.438,541.65,537.894,0.0
52686.0,STARLINK-4005,PAYLOAD,2022-12-27 09:32:31,15.08849777,0.0002722,53.219,348.787,33.4807,326.6356,0.00013099,1.797e-05,0.0,0 STARLINK-4005,1 52686U 22053AG  22361.39758578  .00001797  00000-0  13099-3 0  9994,2 52686  53.2190 348.7870 0002722  33.4807 326.6356 15.08849777 34378,6917.851,95.437,541.599,537.832,0.0
52686.0,STARLINK-4005,PAYLOAD,2022-12-27 15:54:03,15.08863244,0.0002795,53.2192,347.5979,34.8929,325.2246,0.00018439,2.649e-05,0.0,0 STARLINK-4005,1 52686U 22053AG  22361.66253511  .00002649  00000-0  18439-3 0  9991,2 52686  53.2192 347.5979 0002795  34.8929 325.2246 15.08863244 34410,6917.809,95.436,541.6080000000002,537.741,0.0
52686.0,STARLINK-4005,PAYLOAD,2022-12-27 23:50:59,15.08852404,0.0002863,53.2184,346.1118,37.6936,322.4256,0.00046277,7.087e-05,0.0,0 STARLINK-4005,1 52686U 22053AG  22361.99374608  .00007087  00000-0  46277-3 0  9990,2 52686  53.2184 346.1118 0002863  37.6936 322.4256 15.08852404 34467,6917.842,95.437,541.688,537.727,0.0
52686.0,STARLINK-4005,PAYLOAD,2022-12-28 07:47:55,15.08854775,0.0002623,53.218,344.625,39.2548,320.8634,0.0002863999999999,4.275e-05,0.0,0 STARLINK-4005,1 52686U 22053AG  22362.32494242  .00004275  00000-0  28640-3 0  9995,2 52686  53.2180 344.6250 0002623  39.2548 320.8634 15.08854775 34896,6917.835,95.437,541.515,537.886,0.0
52686.0,STARLINK-4005,PAYLOAD,2022-12-29 07:38:43,15.08833694,0.0002898,53.2186,340.164,39.4704,320.6499,-0.00014113,-2.534e-05,0.0,0 STARLINK-4005,1 52686U 22053AG  22363.31855550 -.00002534  00000-0 -14113-3 0  9996,2 52686  53.2186 340.1640 0002898  39.4704 320.6499 15.08833694 34665,6917.9,95.438,541.769,537.76,0.0
52686.0,STARLINK-4005,PAYLOAD,2022-12-29 15:35:39,15.08818189,0.0002718,53.2188,338.6763,37.9441,322.1742,-0.00036418,-6.077e-05,0.0,0 STARLINK-4005,1 52686U 22053AG  22363.64976102 -.00006077  00000-0 -36418-3 0  9997,2 52686  53.2188 338.6763 0002718  37.9441 322.1742 15.08818189 34713,6917.946999999999,95.439,541.692,537.932,0.0
52686.0,STARLINK-4005,PAYLOAD,2022-12-30 02:43:21,15.08835079,0.00025,53.2207,336.5967,32.9472,327.1675,-6.9654e-05,-1.397e-05,0.0,0 STARLINK-4005,1 52686U 22053AG  22364.11344438 -.00001397  00000-0 -69654-4 0  9990,2 52686  53.2207 336.5967 0002500  32.9472 327.1675 15.08835079 34780,6917.895,95.438,541.49,538.031,0.0
52686.0,STARLINK-4005,PAYLOAD,2022-12-30 07:29:30,15.08835324,0.0002683,53.2173,335.7022,34.2491,325.8674,-1.2685e-05,-4.9000000000000005e-06,0.0,0 STARLINK-4005,1 52686U 22053AG  22364.31216134 -.00000490  00000-0 -12685-4 0  9998,2 52686  53.2173 335.7022 0002683  34.2491 325.8674 15.08835324 35196,6917.895,95.438,541.616,537.904,0.0
52686.0,STARLINK-4005,PAYLOAD,2022-12-30 15:26:26,15.08844303,0.0002592,53.2176,334.2158,34.054,326.0618,0.00029876,4.47e-05,0.0,0 STARLINK-4005,1 52686U 22053AG  22364.64335877  .00004470  00000-0  29876-3 0  9999,2 52686  53.2176 334.2158 0002592  34.0540 326.0618 15.08844303 34866,6917.8669999999975,95.437,541.525,537.939,0.0
52686.0,STARLINK-4005,PAYLOAD,2022-12-31 07:20:16,15.08872371,0.0002556,53.2166,331.2445,28.0132,332.0997,0.00099616,0.00015616,0.0,0 STARLINK-4005,1 52686U 22053AG  22365.30575033  .00015616  00000-0  99616-3 0  9996,2 52686  53.2166 331.2445 0002556  28.0132 332.0997 15.08872371 34965,6917.781,95.436,541.415,537.878,0.0
52686.0,STARLINK-4005,PAYLOAD,2022-12-31 15:17:11,15.08872286,0.0002609,53.2156,329.7574,29.7108,330.4032,0.00049652,7.63e-05,0.0,0 STARLINK-4005,1 52686U 22053AG  22365.63694394  .00007630  00000-0  49652-3 0  9996,2 52686  53.2156 329.7574 0002609  29.7108 330.4032 15.08872286 35394,6917.781999999997,95.436,541.452,537.842,0.0
52686.0,STARLINK-4005,PAYLOAD,2023-01-01 04:00:16,15.08849203,0.0002982,53.2171,327.379,26.8843,333.2303,0.00016987,2.417e-05,0.0,0 STARLINK-4005,1 52686U 22053AG  23001.16686322  .00002417  00000-0  16987-3 0  9997,2 52686  53.2171 327.3790 0002982  26.8843 333.2303 15.08849203 35095,6917.852,95.437,541.78,537.654,0.0
52686.0,STARLINK-4005,PAYLOAD,2023-01-01 07:11:03,15.08849093,0.0002484999999999,53.2175,326.7829,28.3208,331.7919,-7.467300000000001e-05,-1.477e-05,0.0,0 STARLINK-4005,1 52686U 22053AG  23001.29934223 -.00001477  00000-0 -74673-4 0  9991,2 52686  53.2175 326.7829 0002485  28.3208 331.7919 15.08849093 35492,6917.853,95.437,541.437,537.999,0.0
52686.0,STARLINK-4005,PAYLOAD,2023-01-01 21:29:33,15.08810801,0.0002739,53.2169,324.1077,31.106,329.0094,0.00068197,0.00010574,0.0,0 STARLINK-4005,1 52686U 22053AG  23001.89552109  .00010574  00000-0  68197-3 0  9995,2 52686  53.2169 324.1077 0002739  31.1060 329.0094 15.08810801 35200,6917.97,95.439,541.729,537.94,0.0
52686.0,STARLINK-4005,PAYLOAD,2023-01-02 07:01:52,15.08821151,0.0002488,53.2174,322.3212,37.399,322.7175,0.00069788,0.00010831,0.0,0 STARLINK-4005,1 52686U 22053AG  23002.29296671  .00010831  00000-0  69788-3 0  9992,2 52686  53.2174 322.3212 0002488  37.3990 322.7175 15.08821151 35646,6917.938,95.439,541.524,538.082,0.0
52686.0,STARLINK-4005,PAYLOAD,2023-01-03 03:41:53,15.08844771,0.0002674,53.218,318.4565,35.6664,324.4506,0.00078577,0.00012241,0.0,0 STARLINK-4005,1 52686U 22053AG  23003.15408944  .00012241  00000-0  78577-3 0  9999,2 52686  53.2180 318.4565 0002674  35.6664 324.4506 15.08844771 35398,6917.866,95.437,541.581,537.881,0.0
